IRIDIUM 106             
1 41917U 17003A   25020.85502581  .00000176  00000+0  55809-4 0  9990
2 41917  86.3983 302.6214 0002302  91.7144 268.4315 14.34218298419771
IRIDIUM 103             
1 41918U 17003B   25020.84233122  .00000665  00000+0  23055-3 0  9992
2 41918  86.3985 302.5278 0001545  95.5144 264.6228 14.34212516419793
IRIDIUM 109             
1 41919U 17003C   25020.84868277 -.00000010  00000+0 -10725-4 0  9995
2 41919  86.3980 302.5758 0001876  79.5801 280.5606 14.34217507419760
IRIDIUM 102             
1 41920U 17003D   25020.81697137  .00000694  00000+0  24088-3 0  9991
2 41920  86.3982 302.5237 0002185  83.3569 276.7875 14.34219577419847
IRIDIUM 105             
1 41921U 17003E   25020.71793929  .00000121  00000+0  36013-4 0  9994
2 41921  86.3955 270.9850 0001988  87.5464 272.5960 14.34215090421687
IRIDIUM 104             
1 41922U 17003F   25020.82965404  .00000006  00000+0 -48283-5 0  9992
2 41922  86.3984 302.5531 0001553  72.9483 287.1883 14.34216569419837
IRIDIUM 114             
1 41923U 17003G   25020.83597380  .00000703  00000+0  24406-3 0  9990
2 41923  86.3983 302.5358 0001976  89.4855 270.6567 14.34213381419812
IRIDIUM 108             
1 41924U 17003H   25020.72474212  .00000602  00000+0  20770-3 0  9995
2 41924  86.3949 270.8929 0002240  89.3041 270.8411 14.34223286421657
